CCSDS_OMM_VERS = 2.0
CREATION_DATE  = 
ORIGINATOR     = 

OBJECT_NAME    = SL-3 R/B
OBJECT_ID      = 1988-032B
CENTER_NAME    = EARTH
REF_FRAME      = TEME
TIME_SYSTEM    = UTC
MEAN_ELEMENT_THEORY = SGP/SGP4

EPOCH          = 2026-04-04T22:22:53.821632
MEAN_MOTION    = 15.20219809
ECCENTRICITY   = .002707
INCLINATION    = 97.5225
RA_OF_ASC_NODE = 78.1022
ARG_OF_PERICENTER = 139.4032
MEAN_ANOMALY   = 220.9228

EPHEMERIS_TYPE = 0
CLASSIFICATION_TYPE = U
NORAD_CAT_ID   = 19046
ELEMENT_SET_NO = 999
REV_AT_EPOCH   = 5609
BSTAR          = .29301926E-3
MEAN_MOTION_DOT = .6343E-4
MEAN_MOTION_DDOT = 0

CCSDS_OMM_VERS = 2.0
CREATION_DATE  = 
ORIGINATOR     = 

OBJECT_NAME    = SL-16 R/B
OBJECT_ID      = 1988-039B
CENTER_NAME    = EARTH
REF_FRAME      = TEME
TIME_SYSTEM    = UTC
MEAN_ELEMENT_THEORY = SGP/SGP4

EPOCH          = 2026-04-04T21:51:09.620928
MEAN_MOTION    = 14.19620726
ECCENTRICITY   = .00238628
INCLINATION    = 71.0174
RA_OF_ASC_NODE = 13.1036
ARG_OF_PERICENTER = 296.8939
MEAN_ANOMALY   = 62.9748

EPHEMERIS_TYPE = 0
CLASSIFICATION_TYPE = U
NORAD_CAT_ID   = 19120
ELEMENT_SET_NO = 999
REV_AT_EPOCH   = 96210
BSTAR          = -.13390827E-4
MEAN_MOTION_DOT = -.77E-6
MEAN_MOTION_DDOT = 0

CCSDS_OMM_VERS = 2.0
CREATION_DATE  = 
ORIGINATOR     = 

OBJECT_NAME    = COSMOS 1953
OBJECT_ID      = 1988-050A
CENTER_NAME    = EARTH
REF_FRAME      = TEME
TIME_SYSTEM    = UTC
MEAN_ELEMENT_THEORY = SGP/SGP4

EPOCH          = 2026-04-04T14:40:40.643328
MEAN_MOTION    = 15.28952983
ECCENTRICITY   = .0011848
INCLINATION    = 82.5057
RA_OF_ASC_NODE = 132.1670
ARG_OF_PERICENTER = 41.4929
MEAN_ANOMALY   = 318.7208

EPHEMERIS_TYPE = 0
CLASSIFICATION_TYPE = U
NORAD_CAT_ID   = 19210
ELEMENT_SET_NO = 999
REV_AT_EPOCH   = 4174
BSTAR          = .36105E-3
MEAN_MOTION_DOT = .10206E-3
MEAN_MOTION_DDOT = 0

CCSDS_OMM_VERS = 2.0
CREATION_DATE  = 
ORIGINATOR     = 

OBJECT_NAME    = SL-8 R/B
OBJECT_ID      = 1988-053B
CENTER_NAME    = EARTH
REF_FRAME      = TEME
TIME_SYSTEM    = UTC
MEAN_ELEMENT_THEORY = SGP/SGP4

EPOCH          = 2026-04-04T22:28:12.602208
MEAN_MOTION    = 14.38934042
ECCENTRICITY   = .0021344
INCLINATION    = 74.0468
RA_OF_ASC_NODE = 64.0813
ARG_OF_PERICENTER = 239.7897
MEAN_ANOMALY   = 178.9428

EPHEMERIS_TYPE = 0
CLASSIFICATION_TYPE = U
NORAD_CAT_ID   = 19257
ELEMENT_SET_NO = 999
REV_AT_EPOCH   = 98037
BSTAR          = .10144799E-3
MEAN_MOTION_DOT = .287E-5
MEAN_MOTION_DDOT = 0

CCSDS_OMM_VERS = 2.0
CREATION_DATE  = 
ORIGINATOR     = 

OBJECT_NAME    = COSMOS 1975
OBJECT_ID      = 1988-093A
CENTER_NAME    = EARTH
REF_FRAME      = TEME
TIME_SYSTEM    = UTC
MEAN_ELEMENT_THEORY = SGP/SGP4

EPOCH          = 2026-04-04T10:58:14.777472
MEAN_MOTION    = 15.28451512
ECCENTRICITY   = .00133565
INCLINATION    = 82.5161
RA_OF_ASC_NODE = 91.8045
ARG_OF_PERICENTER = 82.6260
MEAN_ANOMALY   = 277.6497

EPHEMERIS_TYPE = 0
CLASSIFICATION_TYPE = U
NORAD_CAT_ID   = 19573
ELEMENT_SET_NO = 999
REV_AT_EPOCH   = 2334
BSTAR          = .3783158E-3
MEAN_MOTION_DOT = .10537E-3
MEAN_MOTION_DDOT = 0

CCSDS_OMM_VERS = 2.0
CREATION_DATE  = 
ORIGINATOR     = 

OBJECT_NAME    = SL-14 R/B
OBJECT_ID      = 1988-093B
CENTER_NAME    = EARTH
REF_FRAME      = TEME
TIME_SYSTEM    = UTC
MEAN_ELEMENT_THEORY = SGP/SGP4

EPOCH          = 2026-04-04T20:41:45.221280
MEAN_MOTION    = 14.85689486
ECCENTRICITY   = .00195502
INCLINATION    = 82.5346
RA_OF_ASC_NODE = 17.4800
ARG_OF_PERICENTER = 314.8443
MEAN_ANOMALY   = 108.6070

EPHEMERIS_TYPE = 0
CLASSIFICATION_TYPE = U
NORAD_CAT_ID   = 19574
ELEMENT_SET_NO = 999
REV_AT_EPOCH   = 490
BSTAR          = .7912826E-4
MEAN_MOTION_DOT = .712E-5
MEAN_MOTION_DDOT = 0

CCSDS_OMM_VERS = 2.0
CREATION_DATE  = 
ORIGINATOR     = 

OBJECT_NAME    = SL-16 R/B
OBJECT_ID      = 1988-102B
CENTER_NAME    = EARTH
REF_FRAME      = TEME
TIME_SYSTEM    = UTC
MEAN_ELEMENT_THEORY = SGP/SGP4

EPOCH          = 2026-04-04T23:15:36.156672
MEAN_MOTION    = 14.16155709
ECCENTRICITY   = .00154192
INCLINATION    = 70.9972
RA_OF_ASC_NODE = 96.2005
ARG_OF_PERICENTER = 323.2532
MEAN_ANOMALY   = 36.7533

EPHEMERIS_TYPE = 0
CLASSIFICATION_TYPE = U
NORAD_CAT_ID   = 19650
ELEMENT_SET_NO = 999
REV_AT_EPOCH   = 93061
BSTAR          = .16674556E-3
MEAN_MOTION_DOT = .282E-5
MEAN_MOTION_DDOT = 0

CCSDS_OMM_VERS = 2.0
CREATION_DATE  = 
ORIGINATOR     = 

OBJECT_NAME    = INTERCOSMOS 24
OBJECT_ID      = 1989-080A
CENTER_NAME    = EARTH
REF_FRAME      = TEME
TIME_SYSTEM    = UTC
MEAN_ELEMENT_THEORY = SGP/SGP4

EPOCH          = 2026-04-04T11:01:30.928800
MEAN_MOTION    = 12.59590811
ECCENTRICITY   = .11870098
INCLINATION    = 82.6016
RA_OF_ASC_NODE = 87.6179
ARG_OF_PERICENTER = 232.9570
MEAN_ANOMALY   = 115.7144

EPHEMERIS_TYPE = 0
CLASSIFICATION_TYPE = U
NORAD_CAT_ID   = 20261
ELEMENT_SET_NO = 999
REV_AT_EPOCH   = 67004
BSTAR          = .17457752E-3
MEAN_MOTION_DOT = .593E-5
MEAN_MOTION_DDOT = 0

CCSDS_OMM_VERS = 2.0
CREATION_DATE  = 
ORIGINATOR     = 

OBJECT_NAME    = SL-14 R/B
OBJECT_ID      = 1989-080C
CENTER_NAME    = EARTH
REF_FRAME      = TEME
TIME_SYSTEM    = UTC
MEAN_ELEMENT_THEORY = SGP/SGP4

EPOCH          = 2026-04-04T15:23:45.360672
MEAN_MOTION    = 12.50518925
ECCENTRICITY   = .1230915
INCLINATION    = 82.5946
RA_OF_ASC_NODE = 156.5336
ARG_OF_PERICENTER = 125.4608
MEAN_ANOMALY   = 246.7757

EPHEMERIS_TYPE = 0
CLASSIFICATION_TYPE = U
NORAD_CAT_ID   = 20262
ELEMENT_SET_NO = 999
REV_AT_EPOCH   = 66339
BSTAR          = .14698E-3
MEAN_MOTION_DOT = .519E-5
MEAN_MOTION_DDOT = 0

CCSDS_OMM_VERS = 2.0
CREATION_DATE  = 
ORIGINATOR     = 

OBJECT_NAME    = DELTA 1 R/B
OBJECT_ID      = 1989-089B
CENTER_NAME    = EARTH
REF_FRAME      = TEME
TIME_SYSTEM    = UTC
MEAN_ELEMENT_THEORY = SGP/SGP4

EPOCH          = 2026-04-04T13:19:54.444000
MEAN_MOTION    = 14.50686328
ECCENTRICITY   = .0070139
INCLINATION    = 97.0684
RA_OF_ASC_NODE = 297.8759
ARG_OF_PERICENTER = 41.8048
MEAN_ANOMALY   = 318.8477

EPHEMERIS_TYPE = 0
CLASSIFICATION_TYPE = U
NORAD_CAT_ID   = 20323
ELEMENT_SET_NO = 999
REV_AT_EPOCH   = 89948
BSTAR          = .14441E-3
MEAN_MOTION_DOT = .55E-5
MEAN_MOTION_DDOT = 0

CCSDS_OMM_VERS = 2.0
CREATION_DATE  = 
ORIGINATOR     = 

OBJECT_NAME    = ARIANE 40 R/B
OBJECT_ID      = 1990-005H
CENTER_NAME    = EARTH
REF_FRAME      = TEME
TIME_SYSTEM    = UTC
MEAN_ELEMENT_THEORY = SGP/SGP4

EPOCH          = 2026-04-04T17:36:19.673856
MEAN_MOTION    = 14.39889263
ECCENTRICITY   = .00112722
INCLINATION    = 98.3029
RA_OF_ASC_NODE = 154.6120
ARG_OF_PERICENTER = 123.5613
MEAN_ANOMALY   = 236.6654

EPHEMERIS_TYPE = 0
CLASSIFICATION_TYPE = U
NORAD_CAT_ID   = 20443
ELEMENT_SET_NO = 999
REV_AT_EPOCH   = 89655
BSTAR          = .15632684E-3
MEAN_MOTION_DOT = .449E-5
MEAN_MOTION_DDOT = 0

CCSDS_OMM_VERS = 2.0
CREATION_DATE  = 
ORIGINATOR     = 

OBJECT_NAME    = DELTA 2 R/B(1)
OBJECT_ID      = 1990-008B
CENTER_NAME    = EARTH
REF_FRAME      = TEME
TIME_SYSTEM    = UTC
MEAN_ELEMENT_THEORY = SGP/SGP4

EPOCH          = 2026-04-04T21:48:03.342528
MEAN_MOTION    = 15.59730881
ECCENTRICITY   = .00761754
INCLINATION    = 35.6044
RA_OF_ASC_NODE = 2.3352
ARG_OF_PERICENTER = 145.6106
MEAN_ANOMALY   = 214.9593

EPHEMERIS_TYPE = 0
CLASSIFICATION_TYPE = U
NORAD_CAT_ID   = 20453
ELEMENT_SET_NO = 999
REV_AT_EPOCH   = 93022
BSTAR          = .79144769E-3
MEAN_MOTION_DOT = .7608E-3
MEAN_MOTION_DDOT = 0

