SL-3 R/B                
1 19046U 88032B   26094.93256738  .00006343  00000+0  29302-3 0  9999
2 19046  97.5225  78.1022 0027070 139.4032 220.9228 15.20219809 56092
SL-16 R/B               
1 19120U 88039B   26094.91052802 -.00000077  00000+0 -13391-4 0  9995
2 19120  71.0174  13.1036 0023862 296.8939  62.9748 14.19620726962108
COSMOS 1953             
1 19210U 88050A   26094.61158152  .00010206  00000+0  36105-3 0  9990
2 19210  82.5057 132.1670 0011848  41.4929 318.7208 15.28952983 41740
SL-8 R/B                
1 19257U 88053B   26094.93625697  .00000287  00000+0  10145-3 0  9996
2 19257  74.0468  64.0813 0021344 239.7897 178.9428 14.38934042980370
COSMOS 1975             
1 19573U 88093A   26094.45711548  .00010537  00000+0  37832-3 0  9990
2 19573  82.5161  91.8045 0013356  82.6260 277.6497 15.28451512 23347
SL-14 R/B               
1 19574U 88093B   26094.86232895  .00000712  00000+0  79128-4 0  9998
2 19574  82.5346  17.4800 0019550 314.8443 108.6070 14.85689486  4907
SL-16 R/B               
1 19650U 88102B   26094.96916848  .00000282  00000+0  16675-3 0  9991
2 19650  70.9972  96.2005 0015419 323.2532  36.7533 14.16155709930614
INTERCOSMOS 24          
1 20261U 89080A   26094.45938575  .00000593  00000+0  17458-3 0  9997
2 20261  82.6016  87.6179 1187009 232.9570 115.7144 12.59590811670049
SL-14 R/B               
1 20262U 89080C   26094.64149723  .00000519  00000+0  14698-3 0  9999
2 20262  82.5946 156.5336 1230915 125.4608 246.7757 12.50518925663397
DELTA 1 R/B             
1 20323U 89089B   26094.55549125  .00000550  00000+0  14441-3 0  9997
2 20323  97.0684 297.8759 0070139  41.8048 318.8477 14.50686328899487
ARIANE 40 R/B           
1 20443U 90005H   26094.73356104  .00000449  00000+0  15633-3 0  9994
2 20443  98.3029 154.6120 0011272 123.5613 236.6654 14.39889263896557
DELTA 2 R/B(1)          
1 20453U 90008B   26094.90837202  .00076080  00000+0  79145-3 0  9992
2 20453  35.6044   2.3352 0076175 145.6106 214.9593 15.59730881930228
